ONEWEB-0160             
1 48060U 21025U   24099.12180426  .00000356  00000+0  93898-3 0  9999
2 48060  87.8902 119.5028 0001490  63.0997 297.0285 13.13471139148535
ONEWEB-0163             
1 48061U 21025V   24099.10751443  .00000179  00000+0  45537-3 0  9991
2 48061  87.8897 119.4999 0002236  98.7125 261.4257 13.13472081148667
ONEWEB-0159             
1 48062U 21025W   24099.47728859 -.00000487  00000+0 -13678-2 0  9991
2 48062  87.8895 119.4104 0002283  93.5077 266.6313 13.13468916148623
ONEWEB-0164             
1 48063U 21025X   24099.30748832 -.00000187  00000+0 -54741-3 0  9991
2 48063  87.8898 119.4540 0001849  94.1591 265.9749 13.13471065148596
ONEWEB-0167             
1 48064U 21025Y   24099.10830963  .00000243  00000+0  63057-3 0  9998
2 48064  87.8898 119.5048 0002147  96.8068 263.3306 13.13470859148547
ONEWEB-0166             
1 48065U 21025Z   24099.28210386  .00000282  00000+0  73743-3 0  9995
2 48065  87.8892 119.4561 0002245  90.1025 270.0361 13.13470776148645
ONEWEB-0151             
1 48066U 21025AA  24099.51223045  .00000229  00000+0  59214-3 0  9996
2 48066  87.8895 119.4219 0001857  95.8318 264.3023 13.13470531148622
ONEWEB-0170             
1 48067U 21025AB  24099.44397195  .00000113  00000+0  27520-3 0  9994
2 48067  87.8898 119.4373 0001322  94.4301 265.6979 13.13470514148569
